[{"CCSDS_OMM_VERS":"3.0","COMMENT":"GENERATED VIA SPACE-TRACK.ORG API","CREATION_DATE":"2026-03-25T17:29:05","ORIGINATOR":"18 SPCS","OBJECT_NAME":"COSMOS 2251 DEB","OBJECT_ID":"1993-036BTL","CENTER_NAME":"EARTH","REF_FRAME":"TEME","TIME_SYSTEM":"UTC","MEAN_ELEMENT_THEORY":"SGP4","EPOCH":"2026-03-25T08:38:14.836416","MEAN_MOTION":"15.01448445","ECCENTRICITY":"0.00020627","INCLINATION":"74.0100","RA_OF_ASC_NODE":"220.3448","ARG_OF_PERICENTER":"245.9824","MEAN_ANOMALY":"114.1148","EPHEMERIS_TYPE":"0","CLASSIFICATION_TYPE":"U","NORAD_CAT_ID":"38220","ELEMENT_SET_NO":"999","REV_AT_EPOCH":"72906","BSTAR":"0.00205173640000","MEAN_MOTION_DOT":"0.00026571","MEAN_MOTION_DDOT":"0.0000000000000","SEMIMAJOR_AXIS":"6940.566","PERIOD":"95.907","APOAPSIS":"563.863","PERIAPSIS":"560.999","OBJECT_TYPE":"DEBRIS","RCS_SIZE":"SMALL","COUNTRY_CODE":"CIS","LAUNCH_DATE":"1993-06-16","SITE":"PKMTR","DECAY_DATE":null,"FILE":"5096884","GP_ID":"317012952","TLE_LINE0":"0 COSMOS 2251 DEB","TLE_LINE1":"1 38220U 93036BTL 26084.35989394  .00026571  00000-0  20517-2 0  9994","TLE_LINE2":"2 38220  74.0100 220.3448 0002063 245.9824 114.1148 15.01448445729067"},{"CCSDS_OMM_VERS":"3.0","COMMENT":"GENERATED VIA SPACE-TRACK.ORG API","CREATION_DATE":"2023-03-24T21:00:36","ORIGINATOR":"18 SPCS","OBJECT_NAME":"COSMOS 2251 DEB","OBJECT_ID":"1993-036BTM","CENTER_NAME":"EARTH","REF_FRAME":"TEME","TIME_SYSTEM":"UTC","MEAN_ELEMENT_THEORY":"SGP4","EPOCH":"2023-03-24T05:34:31.851840","MEAN_MOTION":"14.89448305","ECCENTRICITY":"0.00507140","INCLINATION":"73.9972","RA_OF_ASC_NODE":"284.6645","ARG_OF_PERICENTER":"264.0872","MEAN_ANOMALY":"95.4527","EPHEMERIS_TYPE":"0","CLASSIFICATION_TYPE":"U","NORAD_CAT_ID":"38221","ELEMENT_SET_NO":"999","REV_AT_EPOCH":"50355","BSTAR":"0.02178400000000","MEAN_MOTION_DOT":"0.00218764","MEAN_MOTION_DDOT":"0.0000000000000","SEMIMAJOR_AXIS":"6977.795","PERIOD":"96.680","APOAPSIS":"635.047","PERIAPSIS":"564.273","OBJECT_TYPE":"DEBRIS","RCS_SIZE":"SMALL","COUNTRY_CODE":"CIS","LAUNCH_DATE":"1993-06-16","SITE":"PKMTR","DECAY_DATE":"2023-05-11","FILE":"3869846","GP_ID":"228782187","TLE_LINE0":"0 COSMOS 2251 DEB","TLE_LINE1":"1 38221U 93036BTM 23083.23231310  .00218764  00000-0  21784-1 0  9999","TLE_LINE2":"2 38221  73.9972 284.6645 0050714 264.0872  95.4527 14.89448305503552"},{"CCSDS_OMM_VERS":"3.0","COMMENT":"GENERATED VIA SPACE-TRACK.ORG API","CREATION_DATE":"2023-02-18T03:22:57","ORIGINATOR":"18 SPCS","OBJECT_NAME":"COSMOS 2251 DEB","OBJECT_ID":"1993-036BTN","CENTER_NAME":"EARTH","REF_FRAME":"TEME","TIME_SYSTEM":"UTC","MEAN_ELEMENT_THEORY":"SGP4","EPOCH":"2023-02-17T15:52:49.025856","MEAN_MOTION":"15.52671593","ECCENTRICITY":"0.00070220","INCLINATION":"73.9932","RA_OF_ASC_NODE":"39.2830","ARG_OF_PERICENTER":"19.9544","MEAN_ANOMALY":"340.1944","EPHEMERIS_TYPE":"0","CLASSIFICATION_TYPE":"U","NORAD_CAT_ID":"38478","ELEMENT_SET_NO":"999","REV_AT_EPOCH":"54799","BSTAR":"0.01149900000000","MEAN_MOTION_DOT":"0.00771233","MEAN_MOTION_DDOT":"0.0000000000000","SEMIMAJOR_AXIS":"6787.066","PERIOD":"92.743","APOAPSIS":"413.697","PERIAPSIS":"404.166","OBJECT_TYPE":"DEBRIS","RCS_SIZE":"SMALL","COUNTRY_CODE":"CIS","LAUNCH_DATE":"1993-06-16","SITE":"PKMTR","DECAY_DATE":"2023-03-07","FILE":"3804075","GP_ID":"225828090","TLE_LINE0":"0 COSMOS 2251 DEB","TLE_LINE1":"1 38478U 93036BTN 23048.66167854  .00771233  00000-0  11499-1 0  9999","TLE_LINE2":"2 38478  73.9932  39.2830 0007022  19.9544 340.1944 15.52671593547996"},{"CCSDS_OMM_VERS":"3.0","COMMENT":"GENERATED VIA SPACE-TRACK.ORG API","CREATION_DATE":"2026-03-28T16:36:19","ORIGINATOR":"18 SPCS","OBJECT_NAME":"COSMOS 2251 DEB","OBJECT_ID":"1993-036BTP","CENTER_NAME":"EARTH","REF_FRAME":"TEME","TIME_SYSTEM":"UTC","MEAN_ELEMENT_THEORY":"SGP4","EPOCH":"2026-03-28T11:15:50.117184","MEAN_MOTION":"14.39549712","ECCENTRICITY":"0.00807810","INCLINATION":"74.0098","RA_OF_ASC_NODE":"348.8658","ARG_OF_PERICENTER":"74.7708","MEAN_ANOMALY":"99.0234","EPHEMERIS_TYPE":"0","CLASSIFICATION_TYPE":"U","NORAD_CAT_ID":"38479","ELEMENT_SET_NO":"999","REV_AT_EPOCH":"66208","BSTAR":"0.00159880000000","MEAN_MOTION_DOT":"0.00005162","MEAN_MOTION_DDOT":"0.0000000000000","SEMIMAJOR_AXIS":"7138.124","PERIOD":"100.031","APOAPSIS":"817.651","PERIAPSIS":"702.326","OBJECT_TYPE":"DEBRIS","RCS_SIZE":"SMALL","COUNTRY_CODE":"CIS","LAUNCH_DATE":"1993-06-16","SITE":"PKMTR","DECAY_DATE":null,"FILE":"5103625","GP_ID":"317422416","TLE_LINE0":"0 COSMOS 2251 DEB","TLE_LINE1":"1 38479U 93036BTP 26087.46933006  .00005162  00000-0  15988-2 0  9993","TLE_LINE2":"2 38479  74.0098 348.8658 0080781  74.7708  99.0234 14.39549712662084"},{"CCSDS_OMM_VERS":"3.0","COMMENT":"GENERATED VIA SPACE-TRACK.ORG API","CREATION_DATE":"2022-05-05T17:44:53","ORIGINATOR":"18 SPCS","OBJECT_NAME":"COSMOS 2251 DEB","OBJECT_ID":"1993-036BTQ","CENTER_NAME":"EARTH","REF_FRAME":"TEME","TIME_SYSTEM":"UTC","MEAN_ELEMENT_THEORY":"SGP4","EPOCH":"2022-05-05T08:02:00.197664","MEAN_MOTION":"15.30761709","ECCENTRICITY":"0.00198340","INCLINATION":"73.8231","RA_OF_ASC_NODE":"342.6630","ARG_OF_PERICENTER":"309.3639","MEAN_ANOMALY":"50.5805","EPHEMERIS_TYPE":"0","CLASSIFICATION_TYPE":"U","NORAD_CAT_ID":"38480","ELEMENT_SET_NO":"999","REV_AT_EPOCH":"68155","BSTAR":"0.00594530000000","MEAN_MOTION_DOT":"0.00182152","MEAN_MOTION_DDOT":"0.0000000000000","SEMIMAJOR_AXIS":"6851.675","PERIOD":"94.071","APOAPSIS":"487.130","PERIAPSIS":"459.951","OBJECT_TYPE":"DEBRIS","RCS_SIZE":"SMALL","COUNTRY_CODE":"CIS","LAUNCH_DATE":"1993-06-16","SITE":"PKMTR","DECAY_DATE":"2022-07-20","FILE":"3430353","GP_ID":"202762056","TLE_LINE0":"0 COSMOS 2251 DEB","TLE_LINE1":"1 38480U 93036BTQ 22125.33472451  .00182152  00000-0  59453-2 0  9992","TLE_LINE2":"2 38480  73.8231 342.6630 0019834 309.3639  50.5805 15.30761709681558"},{"CCSDS_OMM_VERS":"3.0","COMMENT":"GENERATED VIA SPACE-TRACK.ORG API","CREATION_DATE":"2026-03-23T06:38:30","ORIGINATOR":"18 SPCS","OBJECT_NAME":"COSMOS 2251 DEB","OBJECT_ID":"1993-036BTR","CENTER_NAME":"EARTH","REF_FRAME":"TEME","TIME_SYSTEM":"UTC","MEAN_ELEMENT_THEORY":"SGP4","EPOCH":"2026-03-22T14:29:04.166880","MEAN_MOTION":"13.95341053","ECCENTRICITY":"0.02284650","INCLINATION":"73.9322","RA_OF_ASC_NODE":"194.8937","ARG_OF_PERICENTER":"115.5106","MEAN_ANOMALY":"246.9844","EPHEMERIS_TYPE":"0","CLASSIFICATION_TYPE":"U","NORAD_CAT_ID":"38481","ELEMENT_SET_NO":"999","REV_AT_EPOCH":"60453","BSTAR":"0.00139618800000","MEAN_MOTION_DOT":"0.00002329","MEAN_MOTION_DDOT":"0.0000000000000","SEMIMAJOR_AXIS":"7288.110","PERIOD":"103.201","APOAPSIS":"1076.483","PERIAPSIS":"743.467","OBJECT_TYPE":"DEBRIS","RCS_SIZE":"SMALL","COUNTRY_CODE":"CIS","LAUNCH_DATE":"1993-06-16","SITE":"PKMTR","DECAY_DATE":null,"FILE":"5094924","GP_ID":"316811450","TLE_LINE0":"0 COSMOS 2251 DEB","TLE_LINE1":"1 38481U 93036BTR 26081.60352045  .00002329  00000-0  13962-2 0  9996","TLE_LINE2":"2 38481  73.9322 194.8937 0228465 115.5106 246.9844 13.95341053604538"},{"CCSDS_OMM_VERS":"3.0","COMMENT":"GENERATED VIA SPACE-TRACK.ORG API","CREATION_DATE":"2022-12-05T02:52:20","ORIGINATOR":"18 SPCS","OBJECT_NAME":"COSMOS 2251 DEB","OBJECT_ID":"1993-036BTS","CENTER_NAME":"EARTH","REF_FRAME":"TEME","TIME_SYSTEM":"UTC","MEAN_ELEMENT_THEORY":"SGP4","EPOCH":"2013-03-28T13:21:48.155904","MEAN_MOTION":"14.40741735","ECCENTRICITY":"0.00583470","INCLINATION":"73.9565","RA_OF_ASC_NODE":"150.0975","ARG_OF_PERICENTER":"243.5274","MEAN_ANOMALY":"185.1444","EPHEMERIS_TYPE":"0","CLASSIFICATION_TYPE":"U","NORAD_CAT_ID":"38482","ELEMENT_SET_NO":"999","REV_AT_EPOCH":"18164","BSTAR":"0.00288910000000","MEAN_MOTION_DOT":"0.00009411","MEAN_MOTION_DDOT":"0.0000000000000","SEMIMAJOR_AXIS":"7134.186","PERIOD":"99.949","APOAPSIS":"797.677","PERIAPSIS":"714.425","OBJECT_TYPE":"DEBRIS","RCS_SIZE":"SMALL","COUNTRY_CODE":"CIS","LAUNCH_DATE":"1993-06-16","SITE":"PKMTR","DECAY_DATE":"2015-09-17","FILE":"3681494","GP_ID":"219546609","TLE_LINE0":"0 COSMOS 2251 DEB","TLE_LINE1":"1 38482U 93036BTS 13087.55680736  .00009411  00000-0  28891-2 0  9990","TLE_LINE2":"2 38482  73.9565 150.0975 0058347 243.5274 185.1444 14.40741735181646"},{"CCSDS_OMM_VERS":"3.0","COMMENT":"GENERATED VIA SPACE-TRACK.ORG API","CREATION_DATE":"2026-03-22T12:44:32","ORIGINATOR":"18 SPCS","OBJECT_NAME":"COSMOS 2251 DEB","OBJECT_ID":"1993-036BTT","CENTER_NAME":"EARTH","REF_FRAME":"TEME","TIME_SYSTEM":"UTC","MEAN_ELEMENT_THEORY":"SGP4","EPOCH":"2026-03-22T00:43:36.046848","MEAN_MOTION":"14.29329916","ECCENTRICITY":"0.01142821","INCLINATION":"74.2614","RA_OF_ASC_NODE":"193.9410","ARG_OF_PERICENTER":"269.6469","MEAN_ANOMALY":"89.1586","EPHEMERIS_TYPE":"0","CLASSIFICATION_TYPE":"U","NORAD_CAT_ID":"38483","ELEMENT_SET_NO":"999","REV_AT_EPOCH":"64896","BSTAR":"0.00097470596000","MEAN_MOTION_DOT":"0.00002638","MEAN_MOTION_DDOT":"0.0000000000000","SEMIMAJOR_AXIS":"7172.109","PERIOD":"100.747","APOAPSIS":"875.938","PERIAPSIS":"712.009","OBJECT_TYPE":"DEBRIS","RCS_SIZE":"SMALL","COUNTRY_CODE":"CIS","LAUNCH_DATE":"1993-06-16","SITE":"PKMTR","DECAY_DATE":null,"FILE":"5094862","GP_ID":"316779215","TLE_LINE0":"0 COSMOS 2251 DEB","TLE_LINE1":"1 38483U 93036BTT 26081.03027832  .00002638  00000-0  97471-3 0  9999","TLE_LINE2":"2 38483  74.2614 193.9410 0114282 269.6469  89.1586 14.29329916648965"}]